NORAD_CAT_ID,OBJECT_NAME,OBJECT_TYPE,EPOCH,MEAN_MOTION,ECCENTRICITY,INCLINATION,RA_OF_ASC_NODE,ARG_OF_PERICENTER,MEAN_ANOMALY,BSTAR,MEAN_MOTION_DOT,MEAN_MOTION_DDOT,TLE_LINE0,TLE_LINE1,TLE_LINE2,SEMIMAJOR_AXIS,PERIOD,APOGEE,PERIGEE,DECAYED
50174.0,STARLINK-3292,PAYLOAD,2022-05-17 22:00:01,15.08832068,0.0002076,53.2182,17.0383,44.6638,329.1779,-4.3276e-05,-9.77e-06,0.0,0 STARLINK-3292,1 50174U 21125U   22137.91668981 -.00000977  00000-0 -43276-4 0  9992,2 50174  53.2182  17.0383 0002076  44.6638 329.1779 15.08832068  1301,6917.905,95.438,541.206,538.3330000000002,0.0
50174.0,STARLINK-3292,PAYLOAD,2022-05-18 14:00:01,15.08817097,0.0001865,53.2179,14.0438,46.0513,350.9141,0.0032358,0.00051555,0.0,0 STARLINK-3292,1 50174U 21125U   22138.58334491  .00051555  00000-0  32358-2 0  9995,2 50174  53.2179  14.0438 0001865  46.0513 350.9141 15.08817097 26114,6917.95,95.439,541.106,538.525,0.0
50174.0,STARLINK-3292,PAYLOAD,2022-05-18 22:00:00,15.08841168,0.0002037,53.218,12.5492,42.3309,6.2244,-0.0012252,-0.00019735,0.0,0 STARLINK-3292,1 50174U 21125U   22138.91667824 -.00019735  00000-0 -12252-2 0  9998,2 50174  53.2180  12.5492 0002037  42.3309   6.2244 15.08841168  1308,6917.877,95.437,541.151,538.3330000000002,0.0
50174.0,STARLINK-3292,PAYLOAD,2022-05-19 06:00:00,15.08854566,0.0002059,53.2179,11.0523,40.3401,19.7924,-0.0034661,-0.00055053,0.0,0 STARLINK-3292,1 50174U 21125U   22139.25001157 -.00055053  00000-0 -34661-2 0  9998,2 50174  53.2179  11.0523 0002059  40.3401  19.7924 15.08854566 26217,6917.8359999999975,95.437,541.125,538.276,0.0
50174.0,STARLINK-3292,PAYLOAD,2022-05-19 14:00:01,15.08818188,0.0001948,53.2181,9.5544,46.3907,25.3964,0.0015745999999999,0.00024846,0.0,0 STARLINK-3292,1 50174U 21125U   22139.58335648  .00024846  00000-0  15746-2 0  9996,2 50174  53.2181   9.5544 0001948  46.3907  25.3964 15.08818188  1308,6917.946999999999,95.439,541.16,538.464,0.0
50174.0,STARLINK-3292,PAYLOAD,2022-05-19 22:00:00,15.08823657,0.0002088,53.2183,8.0599,41.8527,41.4586,-0.00020187,-3.498e-05,0.0,0 STARLINK-3292,1 50174U 21125U   22139.91667824 -.00003498  00000-0 -20187-3 0  9995,2 50174  53.2183   8.0599 0002088  41.8527  41.4586 15.08823657 26312,6917.93,95.439,541.24,538.351,0.0
50174.0,STARLINK-3292,PAYLOAD,2022-05-20 14:00:01,15.08850777,0.0001961,53.2177,5.0584,45.8024,60.6815,-0.0047858999999999,-0.0007568,0.0,0 STARLINK-3292,1 50174U 21125U   22140.58334491 -.00075680  00000-0 -47859-2 0  9997,2 50174  53.2177   5.0584 0001961  45.8024  60.6815 15.08850777  1304,6917.847,95.437,541.069,538.356,0.0
50174.0,STARLINK-3292,PAYLOAD,2022-05-20 22:00:00,15.08851366,0.0002037,53.2188,3.5707,38.1943,79.8842,-0.002009,-0.0003213,0.0,0 STARLINK-3292,1 50174U 21125U   22140.91667824 -.00032130  00000-0 -20090-2 0  9994,2 50174  53.2188   3.5707 0002037  38.1943  79.8842 15.08851366 26467,6917.846,95.437,541.12,538.3009999999998,0.0
50174.0,STARLINK-3292,PAYLOAD,2022-05-21 06:00:00,15.08843489,0.0001961,53.2188,2.0738,36.303,93.3702,-0.00053633,-8.815e-05,0.0,0 STARLINK-3292,1 50174U 21125U   22141.25001157 -.00008815  00000-0 -53633-3 0  9996,2 50174  53.2188   2.0738 0001961  36.3030  93.3702 15.08843489  1306,6917.87,95.437,541.091,538.378,0.0
50174.0,STARLINK-3292,PAYLOAD,2022-05-21 14:00:01,15.08854034,0.0001874,53.2193,0.5762,42.4932,98.8392,-0.00083,-0.00013479,0.0,0 STARLINK-3292,1 50174U 21125U   22141.58335648 -.00013479  00000-0 -83000-3 0  9990,2 50174  53.2193   0.5762 0001874  42.4932  98.8392 15.08854034 26562,6917.837,95.437,540.999,538.406,0.0
50174.0,STARLINK-3292,PAYLOAD,2022-05-21 22:00:00,15.08840608,0.0002092,53.2193,359.0817,38.9745,113.9086,0.00019004,2.738e-05,0.0,0 STARLINK-3292,1 50174U 21125U   22141.91667824  .00002738  00000-0  19004-3 0  9998,2 50174  53.2193 359.0817 0002092  38.9745 113.9086 15.08840608  1306,6917.879,95.438,541.191,538.2959999999998,0.0
50174.0,STARLINK-3292,PAYLOAD,2022-05-22 14:00:01,15.088375,0.0001883,53.2196,356.0875,43.6719,132.3957,-0.00064215,-0.00010493,0.0,0 STARLINK-3292,1 50174U 21125U   22142.58334491 -.00010493  00000-0 -64215-3 0  9996,2 50174  53.2196 356.0875 0001883  43.6719 132.3957 15.08837500  1300,6917.888000000001,95.438,541.056,538.45,0.0
50174.0,STARLINK-3292,PAYLOAD,2022-05-22 22:00:01,15.08829214,0.0002076,53.2194,354.593,38.7364,148.9911,-0.0011297,-0.00018217,0.0,0 STARLINK-3292,1 50174U 21125U   22142.91668981 -.00018217  00000-0 -11297-2 0  9990,2 50174  53.2194 354.5930 0002076  38.7364 148.9911 15.08829214 26762,6917.913000000001,95.438,541.215,538.342,0.0
50174.0,STARLINK-3292,PAYLOAD,2022-05-23 14:00:01,15.08838465,0.0002049,53.2177,351.5865,38.7837,171.9993,-0.00011756,-2.159e-05,0.0,0 STARLINK-3292,1 50174U 21125U   22143.58334491 -.00002159  00000-0 -11756-3 0  9999,2 50174  53.2177 351.5865 0002049  38.7837 171.9993 15.08838465  1309,6917.885,95.438,541.168,538.3330000000002,0.0
50174.0,STARLINK-3292,PAYLOAD,2022-05-23 22:00:01,15.08834436,0.0002069,53.219,350.1044,39.0481,183.4129,0.0016104,0.00025431,0.0,0 STARLINK-3292,1 50174U 21125U   22143.91668981  .00025431  00000-0  16104-2 0  9997,2 50174  53.2190 350.1044 0002069  39.0481 183.4129 15.08834436 26916,6917.897,95.438,541.194,538.331,0.0
50174.0,STARLINK-3292,PAYLOAD,2022-05-24 14:00:01,15.08849801,0.0001919,53.2187,347.1103,46.6652,198.9221,-0.0010464,-0.00016908,0.0,0 STARLINK-3292,1 50174U 21125U   22144.58334491 -.00016908  00000-0 -10464-2 0  9991,2 50174  53.2187 347.1103 0001919  46.6652 198.9221 15.08849801 27019,6917.85,95.437,541.043,538.388,0.0
50174.0,STARLINK-3292,PAYLOAD,2022-05-24 22:00:00,15.08811306,0.0002092,53.2185,345.6158,39.6925,217.5006,0.0016964,0.00026792,0.0,0 STARLINK-3292,1 50174U 21125U   22144.91667824  .00026792  00000-0  16964-2 0  9998,2 50174  53.2185 345.6158 0002092  39.6925 217.5006 15.08811306  1300,6917.968000000003,95.439,541.28,538.386,0.0
50174.0,STARLINK-3292,PAYLOAD,2022-05-25 14:00:01,15.08821793,0.0002087,53.2174,342.6097,41.9256,238.4179,0.0015902,0.00025098,0.0,0 STARLINK-3292,1 50174U 21125U   22145.58334491  .00025098  00000-0  15902-2 0  9992,2 50174  53.2174 342.6097 0002087  41.9256 238.4179 15.08821793  1308,6917.936,95.439,541.245,538.357,0.0
50174.0,STARLINK-3292,PAYLOAD,2022-05-25 20:42:41,15.08850456,0.000216,53.2195,341.3661,43.2862,316.83,0.00032569,4.9e-05,0.0,0 STARLINK-3292,1 50174U 21125U   22145.86297678  .00004900  00000-0  32569-3 0  9996,2 50174  53.2195 341.3661 0002160  43.2862 316.8300 15.08850456 27206,6917.848000000001,95.437,541.2080000000002,538.219,0.0
50174.0,STARLINK-3292,PAYLOAD,2022-05-26 06:15:00,15.08844012,0.0002175,53.2189,339.5815,43.9695,316.147,0.00025505,3.774e-05,0.0,0 STARLINK-3292,1 50174U 21125U   22146.26041809  .00003774  00000-0  25505-3 0  9994,2 50174  53.2189 339.5815 0002175  43.9695 316.1470 15.08844012 27264,6917.868,95.437,541.238,538.2280000000002,0.0
50174.0,STARLINK-3292,PAYLOAD,2022-05-26 22:00:00,15.08820884,0.0002215,53.2179,336.6377,40.44300000000001,286.3255,0.0011434,0.00017947,0.0,0 STARLINK-3292,1 50174U 21125U   22146.91667824  .00017947  00000-0  11434-2 0  9999,2 50174  53.2179 336.6377 0002215  40.4430 286.3255 15.08820884  1305,6917.939,95.439,541.336,538.271,0.0
50174.0,STARLINK-3292,PAYLOAD,2022-05-27 14:00:01,15.08831774,0.0002032,53.2181,333.6433,43.2504,306.6632,1.5015e-05,-4.9e-07,0.0,0 STARLINK-3292,1 50174U 21125U   22147.58334491 -.00000049  00000-0  15015-4 0  9991,2 50174  53.2181 333.6433 0002032  43.2504 306.6632 15.08831774  1303,6917.906,95.438,541.1759999999998,538.365,0.0
50174.0,STARLINK-3292,PAYLOAD,2022-05-27 16:00:00,15.08840362,0.0002102,53.218,333.2698,42.0103,40.7967,-0.0013698,-0.00022023,0.0,0 STARLINK-3292,1 50174U 21125U   22147.66667824 -.00022023  00000-0 -13698-2 0  9999,2 50174  53.2180 333.2698 0002102  42.0103  40.7967 15.08840362 27488,6917.879,95.438,541.198,538.29,0.0
50174.0,STARLINK-3292,PAYLOAD,2022-05-27 20:24:15,15.08835332,0.0002139,53.2197,332.4456,49.4823,310.6355,-6.6568e-05,-1.347e-05,0.0,0 STARLINK-3292,1 50174U 21125U   22147.85018364 -.00001347  00000-0 -66568-4 0  9991,2 50174  53.2197 332.4456 0002139  49.4823 310.6355 15.08835332 28032,6917.895,95.438,541.239,538.28,0.0
50174.0,STARLINK-3292,PAYLOAD,2022-05-28 06:00:02,15.08846637,0.0002101,53.2183,330.6505,40.9708,332.1837,0.00035032,5.293e-05,0.0,0 STARLINK-3292,1 50174U 21125U   22148.25002315  .00005293  00000-0  35032-3 0  9998,2 50174  53.2183 330.6505 0002101  40.9708 332.1837 15.08846637 27571,6917.86,95.437,541.179,538.2719999999998,0.0
50174.0,STARLINK-3292,PAYLOAD,2022-05-28 14:00:01,15.08886977,0.0002061,53.2185,329.1542,42.0229,342.6658,-0.0032744,-0.00052092,0.0,0 STARLINK-3292,1 50174U 21125U   22148.58334491 -.00052092  00000-0 -32744-2 0  9994,2 50174  53.2185 329.1542 0002061  42.0229 342.6658 15.08886977  1304,6917.736999999999,95.435,541.028,538.1759999999998,0.0
50174.0,STARLINK-3292,PAYLOAD,2022-05-28 20:15:02,15.08854025,0.000213,53.2188,327.9847,44.5908,315.5255,0.00040282,6.131e-05,0.0,0 STARLINK-3292,1 50174U 21125U   22148.84377381  .00006131  00000-0  40282-3 0  9996,2 50174  53.2188 327.9847 0002130  44.5908 315.5255 15.08854025 28185,6917.8380000000025,95.437,541.1759999999998,538.229,0.0
50174.0,STARLINK-3292,PAYLOAD,2022-05-29 14:00:01,15.08858131,0.0001945,53.2187,324.665,37.8354,21.6614,-0.0035472,-0.0005632999999999,0.0,0 STARLINK-3292,1 50174U 21125U   22149.58334491 -.00056330  00000-0 -35472-2 0  9995,2 50174  53.2187 324.6650 0001945  37.8354  21.6614 15.08858131 27773,6917.825,95.436,541.035,538.344,0.0
50174.0,STARLINK-3292,PAYLOAD,2022-05-29 22:00:00,15.08788408,0.000208,53.2186,323.1701,32.2259,38.8716,0.0033071,0.00052664,0.0,0 STARLINK-3292,1 50174U 21125U   22149.91667824  .00052664  00000-0  33071-2 0  9998,2 50174  53.2186 323.1701 0002080  32.2259  38.8716 15.08788408  1300,6918.038000000001,95.441,541.342,538.464,0.0
